KUIPER-00044            
1 64505U 25134F   25207.25001157 -.00525247  00000+0 -26212-1 0  9992
2 64505  51.8721 173.7911 0011331 232.2549 345.5142 15.19398756  5790
KUIPER-00046            
1 64506U 25134G   25207.25001157 -.00426608  00000+0 -16202-1 0  9992
2 64506  51.8716 173.2442 0008106 239.3547 247.0104 15.28117135  5818
KUIPER-00047            
1 64507U 25134H   25207.15594790  .00013414  00000+0  40869-3 0  9995
2 64507  51.8632 173.6106 0009913 242.8002 117.1974 15.34239225  5802
KUIPER-00048            
1 64508U 25134J   25207.17928499  .00029046  00000+0  81477-3 0  9993
2 64508  51.8770 173.0606 0002627 208.8204 151.2637 15.36338357  5810
KUIPER-00049            
1 64509U 25134K   25207.13385218  .00031033  00000+0  89583-3 0  9991
2 64509  51.8706 173.4923 0007049 224.0807 135.9618 15.35388133  6240
KUIPER-00050            
1 64510U 25134L   25207.20221204  .00011837  00000+0  35237-3 0  9992
2 64510  51.8717 173.2016 0007200 223.4175 136.6244 15.35118218  5815
KUIPER-00051            
1 64511U 25134M   25207.19275509  .00019478  00000+0  56528-3 0  9993
2 64511  51.8727 173.1437 0005075 213.7542 146.3122 15.35507371  6198
KUIPER-00052            
1 64512U 25134N   25207.16081195  .00055290  00000+0  13885-2 0  9997
2 64512  51.8763 172.9439 0003494 202.9332 157.1500 15.39448411  5819
